[{"OBJECT_NAME":"2026-027G","OBJECT_ID":"2026-027G","EPOCH":"2026-03-04T05:23:16.159776","MEAN_MOTION":15.18028016,"ECCENTRICITY":0.0009405,"INCLINATION":97.4907,"RA_OF_ASC_NODE":192.313,"ARG_OF_PERICENTER":225.832,"MEAN_ANOMALY":134.2142,"EPHEMERIS_TYPE":0,"CLASSIFICATION_TYPE":"U","NORAD_CAT_ID":67752,"ELEMENT_SET_NO":999,"REV_AT_EPOCH":303,"BSTAR":0.00080953,"MEAN_MOTION_DOT":0.00016447,"MEAN_MOTION_DDOT":0},{"OBJECT_NAME":"JIELONG-3 R/B","OBJECT_ID":"2026-027H","EPOCH":"2026-03-04T11:35:55.779072","MEAN_MOTION":15.70660495,"ECCENTRICITY":0.023053,"INCLINATION":97.5133,"RA_OF_ASC_NODE":194.0934,"ARG_OF_PERICENTER":263.9826,"MEAN_ANOMALY":93.5124,"EPHEMERIS_TYPE":0,"CLASSIFICATION_TYPE":"U","NORAD_CAT_ID":67753,"ELEMENT_SET_NO":999,"REV_AT_EPOCH":316,"BSTAR":0.00070812,"MEAN_MOTION_DOT":0.00471509,"MEAN_MOTION_DDOT":2.3774e-6},{"OBJECT_NAME":"JIELONG-3 DEB","OBJECT_ID":"2026-027J","EPOCH":"2026-03-04T11:40:20.285760","MEAN_MOTION":15.95074113,"ECCENTRICITY":0.0154759,"INCLINATION":97.5056,"RA_OF_ASC_NODE":194.3938,"ARG_OF_PERICENTER":263.3467,"MEAN_ANOMALY":95.0174,"EPHEMERIS_TYPE":0,"CLASSIFICATION_TYPE":"U","NORAD_CAT_ID":67754,"ELEMENT_SET_NO":999,"REV_AT_EPOCH":312,"BSTAR":0.0013745,"MEAN_MOTION_DOT":0.01890588,"MEAN_MOTION_DDOT":2.4457e-6},{"OBJECT_NAME":"2026-028A","OBJECT_ID":"2026-028A","EPOCH":"2026-03-04T07:43:55.532064","MEAN_MOTION":0.99524034,"ECCENTRICITY":0.0042,"INCLINATION":0.4831,"RA_OF_ASC_NODE":289.5981,"ARG_OF_PERICENTER":229.2836,"MEAN_ANOMALY":201.2585,"EPHEMERIS_TYPE":0,"CLASSIFICATION_TYPE":"U","NORAD_CAT_ID":67756,"ELEMENT_SET_NO":999,"REV_AT_EPOCH":20,"BSTAR":0,"MEAN_MOTION_DOT":-2.0e-7,"MEAN_MOTION_DDOT":0},{"OBJECT_NAME":"JAM-E JAM 1","OBJECT_ID":"2026-028B","EPOCH":"2026-03-03T10:56:01.395744","MEAN_MOTION":1.00266787,"ECCENTRICITY":0.0002449,"INCLINATION":0.5072,"RA_OF_ASC_NODE":285.5539,"ARG_OF_PERICENTER":116.0725,"MEAN_ANOMALY":318.3556,"EPHEMERIS_TYPE":0,"CLASSIFICATION_TYPE":"U","NORAD_CAT_ID":67757,"ELEMENT_SET_NO":999,"REV_AT_EPOCH":6,"BSTAR":0,"MEAN_MOTION_DOT":1.4e-6,"MEAN_MOTION_DDOT":0},{"OBJECT_NAME":"KUIPER-00159","OBJECT_ID":"2026-030A","EPOCH":"2026-03-04T11:47:10.141440","MEAN_MOTION":15.35495952,"ECCENTRICITY":0.0004468,"INCLINATION":51.8842,"RA_OF_ASC_NODE":244.2318,"ARG_OF_PERICENTER":31.3223,"MEAN_ANOMALY":328.8028,"EPHEMERIS_TYPE":0,"CLASSIFICATION_TYPE":"U","NORAD_CAT_ID":67764,"ELEMENT_SET_NO":999,"REV_AT_EPOCH":429,"BSTAR":0.00098235,"MEAN_MOTION_DOT":0.00034185,"MEAN_MOTION_DDOT":0},{"OBJECT_NAME":"KUIPER-00160","OBJECT_ID":"2026-030B","EPOCH":"2026-03-04T11:48:45.554688","MEAN_MOTION":15.35345775,"ECCENTRICITY":0.0004746,"INCLINATION":51.8809,"RA_OF_ASC_NODE":244.2319,"ARG_OF_PERICENTER":42.1444,"MEAN_ANOMALY":317.9906,"EPHEMERIS_TYPE":0,"CLASSIFICATION_TYPE":"U","NORAD_CAT_ID":67765,"ELEMENT_SET_NO":999,"REV_AT_EPOCH":429,"BSTAR":0.0012062,"MEAN_MOTION_DOT":0.00041904,"MEAN_MOTION_DDOT":0},{"OBJECT_NAME":"KUIPER-00177","OBJECT_ID":"2026-030C","EPOCH":"2026-03-04T11:32:00.165408","MEAN_MOTION":15.36288882,"ECCENTRICITY":0.0001077,"INCLINATION":51.8828,"RA_OF_ASC_NODE":244.1618,"ARG_OF_PERICENTER":8.2848,"MEAN_ANOMALY":351.8156,"EPHEMERIS_TYPE":0,"CLASSIFICATION_TYPE":"U","NORAD_CAT_ID":67766,"ELEMENT_SET_NO":999,"REV_AT_EPOCH":429,"BSTAR":0.001312,"MEAN_MOTION_DOT":0.00047042,"MEAN_MOTION_DDOT":0},{"OBJECT_NAME":"KUIPER-00178","OBJECT_ID":"2026-030D","EPOCH":"2026-03-04T11:51:11.165472","MEAN_MOTION":15.35295266,"ECCENTRICITY":0.0006223,"INCLINATION":51.883,"RA_OF_ASC_NODE":244.2493,"ARG_OF_PERICENTER":31.1459,"MEAN_ANOMALY":328.9895,"EPHEMERIS_TYPE":0,"CLASSIFICATION_TYPE":"U","NORAD_CAT_ID":67767,"ELEMENT_SET_NO":999,"REV_AT_EPOCH":429,"BSTAR":0.001489,"MEAN_MOTION_DOT":0.00051815,"MEAN_MOTION_DDOT":0},{"OBJECT_NAME":"KUIPER-00180","OBJECT_ID":"2026-030E","EPOCH":"2026-03-04T12:32:26.471904","MEAN_MOTION":15.32113555,"ECCENTRICITY":0.0014618,"INCLINATION":51.8795,"RA_OF_ASC_NODE":244.4256,"ARG_OF_PERICENTER":52.7518,"MEAN_ANOMALY":307.4797,"EPHEMERIS_TYPE":0,"CLASSIFICATION_TYPE":"U","NORAD_CAT_ID":67768,"ELEMENT_SET_NO":999,"REV_AT_EPOCH":429,"BSTAR":0.0020773,"MEAN_MOTION_DOT":0.00065771,"MEAN_MOTION_DDOT":0},{"OBJECT_NAME":"KUIPER-00197","OBJECT_ID":"2026-030F","EPOCH":"2026-03-04T11:34:59.076480","MEAN_MOTION":15.36163588,"ECCENTRICITY":0.0001418,"INCLINATION":51.883,"RA_OF_ASC_NODE":244.1766,"ARG_OF_PERICENTER":48.3821,"MEAN_ANOMALY":311.7287,"EPHEMERIS_TYPE":0,"CLASSIFICATION_TYPE":"U","NORAD_CAT_ID":67769,"ELEMENT_SET_NO":999,"REV_AT_EPOCH":429,"BSTAR":0.0015219,"MEAN_MOTION_DOT":0.00054465,"MEAN_MOTION_DDOT":0},{"OBJECT_NAME":"KUIPER-00198","OBJECT_ID":"2026-030G","EPOCH":"2026-03-04T11:41:40.773408","MEAN_MOTION":15.35796409,"ECCENTRICITY":0.0003013,"INCLINATION":51.8808,"RA_OF_ASC_NODE":244.2004,"ARG_OF_PERICENTER":34.1858,"MEAN_ANOMALY":325.9321,"EPHEMERIS_TYPE":0,"CLASSIFICATION_TYPE":"U","NORAD_CAT_ID":67770,"ELEMENT_SET_NO":999,"REV_AT_EPOCH":429,"BSTAR":0.00094961,"MEAN_MOTION_DOT":0.00033346,"MEAN_MOTION_DDOT":0},{"OBJECT_NAME":"KUIPER-00199","OBJECT_ID":"2026-030H","EPOCH":"2026-03-04T12:11:35.697120","MEAN_MOTION":15.34151599,"ECCENTRICITY":0.0010142,"INCLINATION":51.8802,"RA_OF_ASC_NODE":244.3326,"ARG_OF_PERICENTER":46.7813,"MEAN_ANOMALY":313.4018,"EPHEMERIS_TYPE":0,"CLASSIFICATION_TYPE":"U","NORAD_CAT_ID":67771,"ELEMENT_SET_NO":999,"REV_AT_EPOCH":429,"BSTAR":0.0018027,"MEAN_MOTION_DOT":0.00060687,"MEAN_MOTION_DDOT":0},{"OBJECT_NAME":"KUIPER-00200","OBJECT_ID":"2026-030J","EPOCH":"2026-03-04T11:23:33.978048","MEAN_MOTION":15.36800201,"ECCENTRICITY":0.0001376,"INCLINATION":51.8805,"RA_OF_ASC_NODE":244.1209,"ARG_OF_PERICENTER":213.3954,"MEAN_ANOMALY":146.6946,"EPHEMERIS_TYPE":0,"CLASSIFICATION_TYPE":"U","NORAD_CAT_ID":67772,"ELEMENT_SET_NO":999,"REV_AT_EPOCH":429,"BSTAR":0.00099506,"MEAN_MOTION_DOT":0.00036128,"MEAN_MOTION_DDOT":0},{"OBJECT_NAME":"KUIPER-00203","OBJECT_ID":"2026-030K","EPOCH":"2026-03-04T10:00:01.999584","MEAN_MOTION":15.24321602,"ECCENTRICITY":0.0011747,"INCLINATION":51.8812,"RA_OF_ASC_NODE":244.954,"ARG_OF_PERICENTER":46.7559,"MEAN_ANOMALY":60.7953,"EPHEMERIS_TYPE":0,"CLASSIFICATION_TYPE":"U","NORAD_CAT_ID":67773,"ELEMENT_SET_NO":999,"REV_AT_EPOCH":284,"BSTAR":0.0033992,"MEAN_MOTION_DOT":0.00085061,"MEAN_MOTION_DDOT":0},{"OBJECT_NAME":"KUIPER-00205","OBJECT_ID":"2026-030L","EPOCH":"2026-03-04T11:36:02.863872","MEAN_MOTION":15.361398,"ECCENTRICITY":0.0002691,"INCLINATION":51.8808,"RA_OF_ASC_NODE":244.1755,"ARG_OF_PERICENTER":6.2345,"MEAN_ANOMALY":353.8674,"EPHEMERIS_TYPE":0,"CLASSIFICATION_TYPE":"U","NORAD_CAT_ID":67774,"ELEMENT_SET_NO":999,"REV_AT_EPOCH":429,"BSTAR":0.00095371,"MEAN_MOTION_DOT":0.00033868,"MEAN_MOTION_DDOT":0},{"OBJECT_NAME":"KUIPER-00208","OBJECT_ID":"2026-030M","EPOCH":"2026-03-04T12:28:46.323840","MEAN_MOTION":15.32643438,"ECCENTRICITY":0.0014599,"INCLINATION":51.882,"RA_OF_ASC_NODE":244.4175,"ARG_OF_PERICENTER":45.3118,"MEAN_ANOMALY":314.9054,"EPHEMERIS_TYPE":0,"CLASSIFICATION_TYPE":"U","NORAD_CAT_ID":67775,"ELEMENT_SET_NO":999,"REV_AT_EPOCH":429,"BSTAR":0.0017412,"MEAN_MOTION_DOT":0.00055923,"MEAN_MOTION_DDOT":0}]
